NORAD_CAT_ID,OBJECT_NAME,OBJECT_TYPE,EPOCH,MEAN_MOTION,ECCENTRICITY,INCLINATION,RA_OF_ASC_NODE,ARG_OF_PERICENTER,MEAN_ANOMALY,BSTAR,MEAN_MOTION_DOT,MEAN_MOTION_DDOT,TLE_LINE0,TLE_LINE1,TLE_LINE2,SEMIMAJOR_AXIS,PERIOD,APOGEE,PERIGEE,DECAYED
55272.0,STARLINK-5310,PAYLOAD,2023-10-04 14:21:35,14.98332251,0.0003049,69.9984,121.3159,270.8619,89.2191,6.8098e-05,7.2e-06,0.0,0 STARLINK-5310,1 55272U 23010D   23277.59832966  .00000720  00000-0  68098-4 0  9990,2 55272  69.9984 121.3159 0003049 270.8619  89.2191 14.98332251 39908,6950.186,96.107,574.17,569.932,0.0
55272.0,STARLINK-5310,PAYLOAD,2023-10-04 17:33:51,14.98333148,0.0003045,69.9986,120.9792,270.8569,89.2241,7.4391e-05,7.95e-06,0.0,0 STARLINK-5310,1 55272U 23010D   23277.73184874  .00000795  00000-0  74391-4 0  9999,2 55272  69.9986 120.9792 0003045 270.8569  89.2241 14.98333148 39618,6950.183,96.107,574.164,569.932,0.0
55272.0,STARLINK-5310,PAYLOAD,2023-10-04 20:46:07,14.98334944,0.0003058,69.9984,120.6428,270.7769,89.304,8.1014e-05,8.74e-06,0.0,0 STARLINK-5310,1 55272U 23010D   23277.86536715  .00000874  00000-0  81014-4 0  9996,2 55272  69.9984 120.6428 0003058 270.7769  89.3040 14.98334944 39943,6950.178,96.107,574.168,569.917,0.0
55272.0,STARLINK-5310,PAYLOAD,2023-10-05 06:22:56,14.98330654,0.0003007,69.9984,119.6327,271.1303,88.9511,5.11e-05,5.17e-06,0.0,0 STARLINK-5310,1 55272U 23010D   23278.26593004  .00000517  00000-0  51100-4 0  9992,2 55272  69.9984 119.6327 0003007 271.1303  88.9511 14.98330654 40003,6950.191,96.107,574.146,569.966,0.0
55272.0,STARLINK-5310,PAYLOAD,2023-10-05 20:48:09,14.98328577,0.0002949,69.9984,118.1181,269.7064,90.3757,1.4305e-05,7.8e-07,0.0,0 STARLINK-5310,1 55272U 23010D   23278.86677246  .00000078  00000-0  14305-4 0  9997,2 55272  69.9984 118.1181 0002949 269.7064  90.3757 14.98328577 39789,6950.197,96.107,574.112,570.013,0.0
55272.0,STARLINK-5310,PAYLOAD,2023-10-06 00:00:25,14.98329028,0.0002946,69.9984,117.7814,269.7842,90.2979,1.795e-05,1.21e-06,0.0,0 STARLINK-5310,1 55272U 23010D   23279.00029210  .00000121  00000-0  17950-4 0  9994,2 55272  69.9984 117.7814 0002946 269.7842  90.2979 14.98329028 40114,6950.196,96.107,574.108,570.013,0.0
55272.0,STARLINK-5310,PAYLOAD,2023-10-06 20:50:10,14.98326744,0.000303,69.9985,115.5925,268.9058,91.1754,-7.136e-05,-9.44e-06,0.0,0 STARLINK-5310,1 55272U 23010D   23279.86817661 -.00000944  00000-0 -71360-4 0  9993,2 55272  69.9985 115.5925 0003030 268.9058  91.1754 14.98326744 39930,6950.203,96.107,574.174,569.962,0.0
55272.0,STARLINK-5310,PAYLOAD,2023-10-06 22:26:18,14.98326913,0.0002921,69.9984,115.4248,264.4549,95.6277,-6.5885e-05,-8.79e-06,0.0,0 STARLINK-5310,1 55272U 23010D   23279.93493641 -.00000879  00000-0 -65885-4 0  9991,2 55272  69.9984 115.4248 0002921 264.4549  95.6277 14.98326913 40254,6950.202,96.107,574.098,570.037,0.0
55272.0,STARLINK-5310,PAYLOAD,2023-10-07 06:26:57,14.98385745,0.0003191,69.9985,114.583,265.7521,94.3274,-0.00099817,-0.00012,0.0,0 STARLINK-5310,1 55272U 23010D   23280.26871969 -.00012000  00000-0 -99817-3 0  9992,2 55272  69.9985 114.5830 0003191 265.7521  94.3274 14.98385745 39996,6950.021,96.103,574.103,569.668,0.0
55272.0,STARLINK-5310,PAYLOAD,2023-10-07 14:27:38,14.98329179,0.0003033,69.9981,113.7408,269.549,90.5322,6.1206e-05,6.37e-06,0.0,0 STARLINK-5310,1 55272U 23010D   23280.60253205  .00000637  00000-0  61206-4 0  9990,2 55272  69.9981 113.7408 0003033 269.5490  90.5322 14.98329179 40359,6950.195,96.107,574.168,569.952,0.0
55272.0,STARLINK-5310,PAYLOAD,2023-10-07 19:16:02,14.98330716,0.0003011,69.9982,113.2357,265.4112,94.6703,4.4993e-05,4.44e-06,0.0,0 STARLINK-5310,1 55272U 23010D   23280.80281148  .00000444  00000-0  44993-4 0  9999,2 55272  69.9982 113.2357 0003011 265.4112  94.6703 14.98330716 40076,6950.191,96.107,574.148,569.963,0.0
55272.0,STARLINK-5310,PAYLOAD,2023-10-07 20:52:10,14.98332071,0.0002961,69.9983,113.0674,264.2129,95.8693,4.2508e-05,4.14e-06,0.0,0 STARLINK-5310,1 55272U 23010D   23280.86957065  .00000414  00000-0  42508-4 0  9990,2 55272  69.9983 113.0674 0002961 264.2129  95.8693 14.98332071 40397,6950.186,96.107,574.109,569.994,0.0
55272.0,STARLINK-5310,PAYLOAD,2023-10-08 12:53:31,14.98330787,0.0003101,69.9982,111.3839,269.7932,90.2871,8.9121e-05,9.71e-06,0.0,0 STARLINK-5310,1 55272U 23010D   23281.53717019  .00000971  00000-0  89121-4 0  9998,2 55272  69.9982 111.3839 0003101 269.7932  90.2871 14.98330787 40499,6950.19,96.107,574.211,569.9,0.0
55272.0,STARLINK-5310,PAYLOAD,2023-10-08 19:18:03,14.98332276,0.0003083,69.9982,110.7108,270.3794,89.7012,0.00010106,1.113e-05,0.0,0 STARLINK-5310,1 55272U 23010D   23281.80420886  .00001113  00000-0  10106-3 0  9996,2 55272  69.9982 110.7108 0003083 270.3794  89.7012 14.98332276 40220,6950.186,96.107,574.194,569.908,0.0
55272.0,STARLINK-5310,PAYLOAD,2023-10-08 20:54:11,14.98333133,0.0003071,69.9982,110.5425,270.4703,89.6104,0.0001091,1.209e-05,0.0,0 STARLINK-5310,1 55272U 23010D   23281.87096800  .00001209  00000-0  10910-3 0  9997,2 55272  69.9982 110.5425 0003071 270.4703  89.6104 14.98333133 40547,6950.183,96.107,574.183,569.914,0.0
55272.0,STARLINK-5310,PAYLOAD,2023-10-09 12:55:32,14.9833284,0.0002987,69.9985,108.8591,270.8049,89.2768,7.4844e-06,-4e-08,0.0,0 STARLINK-5310,1 55272U 23010D   23282.53857007 -.00000004  00000-0  74844-5 0  9996,2 55272  69.9985 108.8591 0002987 270.8049  89.2768 14.98332840 40643,6950.184,96.107,574.125,569.973,0.0
55272.0,STARLINK-5310,PAYLOAD,2023-10-09 20:56:12,14.98334185,0.0002984,69.9984,108.0174,270.8731,89.2087,2.6668e-05,2.25e-06,0.0,0 STARLINK-5310,1 55272U 23010D   23282.87236797  .00000225  00000-0  26668-4 0  9994,2 55272  69.9984 108.0174 0002984 270.8731  89.2087 14.98334185 40699,6950.18,96.107,574.119,569.971,0.0
55272.0,STARLINK-5310,PAYLOAD,2023-10-09 22:32:20,14.98334428,0.0002987,69.9984,107.8491,270.9418,89.1399,2.8517e-05,2.47e-06,0.0,0 STARLINK-5310,1 55272U 23010D   23282.93912757  .00000247  00000-0  28517-4 0  9997,2 55272  69.9984 107.8491 0002987 270.9418  89.1399 14.98334428 40396,6950.179,96.107,574.12,569.968,0.0
55272.0,STARLINK-5310,PAYLOAD,2023-10-10 12:57:33,14.98333514,0.0002946,69.9983,106.3339,270.8416,89.2405,-1.5437e-05,-2.77e-06,0.0,0 STARLINK-5310,1 55272U 23010D   23283.53996801 -.00000277  00000-0 -15437-4 0  9998,2 55272  69.9983 106.3339 0002946 270.8416  89.2405 14.98333514 40790,6950.182,96.107,574.095,570.0,0.0
55272.0,STARLINK-5310,PAYLOAD,2023-10-10 20:58:13,14.98333152,0.0002964,69.9985,105.4925,271.0262,89.0558,-1.0353e-05,-2.17e-06,0.0,0 STARLINK-5310,1 55272U 23010D   23283.87376727 -.00000217  00000-0 -10353-4 0  9990,2 55272  69.9985 105.4925 0002964 271.0262  89.0558 14.98333152 40846,6950.183,96.107,574.108,569.988,0.0
55272.0,STARLINK-5310,PAYLOAD,2023-10-10 22:34:26,14.9827415,0.0002643,69.9984,105.3242,286.9955,73.0915,-0.00065961,-7.943e-05,0.0,0 STARLINK-5310,1 55272U 23010D   23283.94058197 -.00007943  00000-0 -65961-3 0  9993,2 55272  69.9984 105.3242 0002643 286.9955  73.0915 14.98274150 40543,6950.366,96.111,574.068,570.394,0.0
55272.0,STARLINK-5310,PAYLOAD,2023-10-11 12:59:36,14.98302182,0.0003935,69.9976,103.808,263.3422,96.7289,-0.00027695,-3.394e-05,0.0,0 STARLINK-5310,1 55272U 23010D   23284.54139905 -.00003394  00000-0 -27695-3 0  9995,2 55272  69.9976 103.8080 0003935 263.3422  96.7289 14.98302182 40633,6950.279,96.109,574.879,569.409,0.0
55272.0,STARLINK-5310,PAYLOAD,2023-10-11 21:00:15,14.98322997,0.0002687,69.9987,102.9675,267.4514,92.6337,-2.5442e-05,-3.96e-06,0.0,0 STARLINK-5310,1 55272U 23010D   23284.87518443 -.00000396  00000-0 -25442-4 0  9997,2 55272  69.9987 102.9675 0002687 267.4514  92.6337 14.98322997 40685,6950.215,96.107,573.947,570.212,0.0
55272.0,STARLINK-5310,PAYLOAD,2023-10-12 13:01:36,14.98326875,0.0002736,69.9987,101.2841,265.1146,94.9701,3.9999e-05,3.84e-06,0.0,0 STARLINK-5310,1 55272U 23010D   23285.54278291  .00000384  00000-0  39999-4 0  9993,2 55272  69.9987 101.2841 0002736 265.1146  94.9701 14.98326875 41098,6950.203,96.107,573.969,570.166,0.0
55272.0,STARLINK-5310,PAYLOAD,2023-10-12 19:26:08,14.98328775,0.0002706,69.9988,100.6108,264.8875,95.1975,6.2421e-05,6.52e-06,0.0,0 STARLINK-5310,1 55272U 23010D   23285.80982196  .00000652  00000-0  62421-4 0  9992,2 55272  69.9988 100.6108 0002706 264.8875  95.1975 14.98328775 40827,6950.197,96.107,573.942,570.181,0.0
55272.0,STARLINK-5310,PAYLOAD,2023-10-12 21:02:16,14.9832917,0.0002698,69.9988,100.4424,264.9566,95.1285,6.6797e-05,7.04e-06,0.0,0 STARLINK-5310,1 55272U 23010D   23285.87658182  .00000704  00000-0  66797-4 0  9992,2 55272  69.9988 100.4424 0002698 264.9566  95.1285 14.98329170 41144,6950.195,96.107,573.936,570.185,0.0
55272.0,STARLINK-5310,PAYLOAD,2023-10-13 14:39:45,14.98333676,0.0002541,69.9988,98.5907,259.5715,100.5158,0.00016463,1.872e-05,0.0,0 STARLINK-5310,1 55272U 23010D   23286.61094009  .00001872  00000-0  16463-3 0  9998,2 55272  69.9988  98.5907 0002541 259.5715 100.5158 14.98333676 41258,6950.182,96.107,573.813,570.28,0.0
55272.0,STARLINK-5310,PAYLOAD,2023-10-13 21:04:17,14.9833822,0.0002529,69.9988,97.9173,259.8474,100.24,0.0001803,2.059e-05,0.0,0 STARLINK-5310,1 55272U 23010D   23286.87797621  .00002059  00000-0  18030-3 0  9996,2 55272  69.9988  97.9173 0002529 259.8474 100.2400 14.98338220 40983,6950.167,96.106,573.79,570.275,0.0
55272.0,STARLINK-5310,PAYLOAD,2023-10-14 13:05:37,14.9834077,0.0002546,69.9986,96.2336,260.5885,99.4986,0.00012894,1.446e-05,0.0,0 STARLINK-5310,1 55272U 23010D   23287.54557178  .00001446  00000-0  12894-3 0  9993,2 55272  69.9986  96.2336 0002546 260.5885  99.4986 14.98340770 41395,6950.16,96.106,573.794,570.255,0.0
55272.0,STARLINK-5310,PAYLOAD,2023-10-14 21:06:17,14.98345742,0.0002546,69.9987,95.3921,261.3544,98.7326,0.00013704,1.543e-05,0.0,0 STARLINK-5310,1 55272U 23010D   23287.87936594  .00001543  00000-0  13704-3 0  9991,2 55272  69.9987  95.3921 0002546 261.3544  98.7326 14.98345742 41133,6950.144,96.106,573.779,570.24,0.0
